[{"OBJECT_NAME":"OBJECT M","OBJECT_ID":"2024-205M","EPOCH":"2026-03-09T22:23:47.520096","MEAN_MOTION":15.27663844,"ECCENTRICITY":0.00036602,"INCLINATION":97.3915,"RA_OF_ASC_NODE":144.193,"ARG_OF_PERICENTER":310.2554,"MEAN_ANOMALY":49.8364,"EPHEMERIS_TYPE":0,"CLASSIFICATION_TYPE":"U","NORAD_CAT_ID":61905,"ELEMENT_SET_NO":999,"REV_AT_EPOCH":7334,"BSTAR":0.00036391974,"MEAN_MOTION_DOT":9.771e-5,"MEAN_MOTION_DDOT":0},{"OBJECT_NAME":"STARLINK-32743","OBJECT_ID":"2024-254U","EPOCH":"2026-03-09T04:47:44.708928","MEAN_MOTION":15.27585096,"ECCENTRICITY":0.00029067,"INCLINATION":42.9994,"RA_OF_ASC_NODE":18.6534,"ARG_OF_PERICENTER":253.1247,"MEAN_ANOMALY":106.9286,"EPHEMERIS_TYPE":0,"CLASSIFICATION_TYPE":"U","NORAD_CAT_ID":62480,"ELEMENT_SET_NO":999,"REV_AT_EPOCH":6758,"BSTAR":0.00093197303,"MEAN_MOTION_DOT":0.00025478,"MEAN_MOTION_DDOT":0}]
